var json_data = 
{
  "links": {
    "next": "http://www.neowsapp.com/rest/v1/feed?start_date=2021-02-20&end_date=2021-02-20&detailed=true&api_key=DEMO_KEY",
    "prev": "http://www.neowsapp.com/rest/v1/feed?start_date=2021-02-18&end_date=2021-02-18&detailed=true&api_key=DEMO_KEY",
    "self": "http://www.neowsapp.com/rest/v1/feed?start_date=2021-02-19&end_date=2021-02-19&detailed=true&api_key=DEMO_KEY"
  },
  "element_count": 14,
  "near_earth_objects": {
    "2021-02-19": [
      {
        "links": {
          "self": "http://www.neowsapp.com/rest/v1/neo/2349074?api_key=DEMO_KEY"
        },
        "id": "2349074",
        "neo_reference_id": "2349074",
        "name": "349074 (2007 BM8)",
        "nasa_jpl_url": "http://ssd.jpl.nasa.gov/sbdb.cgi?sstr=2349074",
        "absolute_magnitude_h": 18.3,
        "estimated_diameter": {
          "kilometers": {
            "estimated_diameter_min": 0.5815070396,
            "estimated_diameter_max": 1.30028927
          },
          "meters": {
            "estimated_diameter_min": 581.5070396458,
            "estimated_diameter_max": 1300.2892700427
          },
          "miles": {
            "estimated_diameter_min": 0.3613316107,
            "estimated_diameter_max": 0.807962044
          },
          "feet": {
            "estimated_diameter_min": 1907.8315559515,
            "estimated_diameter_max": 4266.0410487267
          }
        },
        "is_potentially_hazardous_asteroid": false,
        "close_approach_data": [
          {
            "close_approach_date": "2021-02-19",
            "close_approach_date_full": "2021-Feb-19 22:49",
            "epoch_date_close_approach": 1613774940000,
            "relative_velocity": {
              "kilometers_per_second": "17.6593285341",
              "kilometers_per_hour": "63573.5827226488",
              "miles_per_hour": "39502.1519978592"
            },
            "miss_distance": {
              "astronomical": "0.4973441052",
              "lunar": "193.4668569228",
              "kilometers": "74401618.794975924",
              "miles": "46231022.1582147912"
            },
            "orbiting_body": "Earth"
          }
        ],
        "orbital_data": {
          "orbit_id": "49",
          "orbit_determination_date": "2021-02-14 05:23:54",
          "first_observation_date": "2002-12-05",
          "last_observation_date": "2021-02-13",
          "data_arc_in_days": 6645,
          "observations_used": 147,
          "orbit_uncertainty": "0",
          "minimum_orbit_intersection": ".406791",
          "jupiter_tisserand_invariant": "4.502",
          "epoch_osculation": "2459000.5",
          "eccentricity": ".7208175586519936",
          "semi_major_axis": "1.341520962527981",
          "inclination": "27.63973484895743",
          "ascending_node_longitude": "87.64006949825989",
          "orbital_period": "567.5375771814928",
          "perihelion_distance": ".3745290974380891",
          "perihelion_argument": "179.2711133332358",
          "aphelion_distance": "2.308512827617872",
          "perihelion_time": "2458756.917145786635",
          "mean_anomaly": "154.5092889748325",
          "mean_motion": ".6343192318433492",
          "equinox": "J2000",
          "orbit_class": {
            "orbit_class_type": "APO",
            "orbit_class_description": "Near-Earth asteroid orbits which cross the Earth’s orbit similar to that of 1862 Apollo",
            "orbit_class_range": "a (semi-major axis) > 1.0 AU; q (perihelion) < 1.017 AU"
          }
        },
        "is_sentry_object": false
      },
      {
        "links": {
          "self": "http://www.neowsapp.com/rest/v1/neo/3134264?api_key=DEMO_KEY"
        },
        "id": "3134264",
        "neo_reference_id": "3134264",
        "name": "(2002 RR25)",
        "nasa_jpl_url": "http://ssd.jpl.nasa.gov/sbdb.cgi?sstr=3134264",
        "absolute_magnitude_h": 20.9,
        "estimated_diameter": {
          "kilometers": {
            "estimated_diameter_min": 0.1756123185,
            "estimated_diameter_max": 0.3926810818
          },
          "meters": {
            "estimated_diameter_min": 175.6123184804,
            "estimated_diameter_max": 392.6810818086
          },
          "miles": {
            "estimated_diameter_min": 0.1091204019,
            "estimated_diameter_max": 0.2440006365
          },
          "feet": {
            "estimated_diameter_min": 576.1559189633,
            "estimated_diameter_max": 1288.3238004408
          }
        },
        "is_potentially_hazardous_asteroid": false,
        "close_approach_data": [
          {
            "close_approach_date": "2021-02-19",
            "close_approach_date_full": "2021-Feb-19 23:53",
            "epoch_date_close_approach": 1613778780000,
            "relative_velocity": {
              "kilometers_per_second": "14.0115903717",
              "kilometers_per_hour": "50441.7253382273",
              "miles_per_hour": "31342.5265025224"
            },
            "miss_distance": {
              "astronomical": "0.3266604669",
              "lunar": "127.0709216241",
              "kilometers": "48867710.061445503",
              "miles": "30364986.9890258214"
            },
            "orbiting_body": "Earth"
          }
        ],
        "orbital_data": {
          "orbit_id": "31",
          "orbit_determination_date": "2018-07-13 06:54:51",
          "first_observation_date": "2002-09-04",
          "last_observation_date": "2018-07-12",
          "data_arc_in_days": 5790,
          "observations_used": 135,
          "orbit_uncertainty": "1",
          "minimum_orbit_intersection": ".140977",
          "jupiter_tisserand_invariant": "6.178",
          "epoch_osculation": "2459000.5",
          "eccentricity": ".3098025746372477",
          "semi_major_axis": ".9668893966938814",
          "inclination": "13.54162711624813",
          "ascending_node_longitude": "349.8676649792481",
          "orbital_period": "347.267086384875",
          "perihelion_distance": ".6673445722086618",
          "perihelion_argument": "156.1286869191568",
          "aphelion_distance": "1.266434221179101",
          "perihelion_time": "2458914.653089657349",
          "mean_anomaly": "88.99457776169062",
          "mean_motion": "1.036666053635193",
          "equinox": "J2000",
          "orbit_class": {
            "orbit_class_type": "ATE",
            "orbit_class_description": "Near-Earth asteroid orbits similar to that of 2062 Aten",
            "orbit_class_range": "a (semi-major axis) < 1.0 AU; q (perihelion) > 0.983 AU"
          }
        },
        "is_sentry_object": false
      },
      {
        "links": {
          "self": "http://www.neowsapp.com/rest/v1/neo/3328632?api_key=DEMO_KEY"
        },
        "id": "3328632",
        "neo_reference_id": "3328632",
        "name": "(2006 FK)",
        "nasa_jpl_url": "http://ssd.jpl.nasa.gov/sbdb.cgi?sstr=3328632",
        "absolute_magnitude_h": 21.2,
        "estimated_diameter": {
          "kilometers": {
            "estimated_diameter_min": 0.1529519353,
            "estimated_diameter_max": 0.3420109247
          },
          "meters": {
            "estimated_diameter_min": 152.9519353442,
            "estimated_diameter_max": 342.0109247198
          },
          "miles": {
            "estimated_diameter_min": 0.095039897,
            "estimated_diameter_max": 0.2125156703
          },
          "feet": {
            "estimated_diameter_min": 501.8108275547,
            "estimated_diameter_max": 1122.0831222578
          }
        },
        "is_potentially_hazardous_asteroid": false,
        "close_approach_data": [
          {
            "close_approach_date": "2021-02-19",
            "close_approach_date_full": "2021-Feb-19 06:44",
            "epoch_date_close_approach": 1613717040000,
            "relative_velocity": {
              "kilometers_per_second": "11.8607267048",
              "kilometers_per_hour": "42698.6161372109",
              "miles_per_hour": "26531.2595659242"
            },
            "miss_distance": {
              "astronomical": "0.2026405817",
              "lunar": "78.8271862813",
              "kilometers": "30314599.397880979",
              "miles": "18836618.6002323502"
            },
            "orbiting_body": "Earth"
          }
        ],
        "orbital_data": {
          "orbit_id": "22",
          "orbit_determination_date": "2017-04-06 09:08:55",
          "first_observation_date": "2006-03-23",
          "last_observation_date": "2014-04-16",
          "data_arc_in_days": 2946,
          "observations_used": 66,
          "orbit_uncertainty": "0",
          "minimum_orbit_intersection": ".193724",
          "jupiter_tisserand_invariant": "6.406",
          "epoch_osculation": "2459000.5",
          "eccentricity": ".3433144095337952",
          "semi_major_axis": ".9224969860660974",
          "inclination": "14.61236773206936",
          "ascending_node_longitude": "15.15762307679363",
          "orbital_period": "323.6278296774628",
          "perihelion_distance": ".6057904779981095",
          "perihelion_argument": "3.194068369748058",
          "aphelion_distance": "1.239203494134085",
          "perihelion_time": "2458858.040177196009",
          "mean_anomaly": "158.4707231777612",
          "mean_motion": "1.112388883115481",
          "equinox": "J2000",
          "orbit_class": {
            "orbit_class_type": "ATE",
            "orbit_class_description": "Near-Earth asteroid orbits similar to that of 2062 Aten",
            "orbit_class_range": "a (semi-major axis) < 1.0 AU; q (perihelion) > 0.983 AU"
          }
        },
        "is_sentry_object": false
      },
      {
        "links": {
          "self": "http://www.neowsapp.com/rest/v1/neo/3661508?api_key=DEMO_KEY"
        },
        "id": "3661508",
        "neo_reference_id": "3661508",
        "name": "(2014 CS13)",
}